CCSDS_OMM_VERS = 2.0
CREATION_DATE  = 
ORIGINATOR     = 

OBJECT_NAME    = UNKNOWN
OBJECT_ID      = 
CENTER_NAME    = EARTH
REF_FRAME      = TEME
TIME_SYSTEM    = UTC
MEAN_ELEMENT_THEORY = SGP/SGP4

EPOCH          = 2026-03-30T10:35:03.302016
MEAN_MOTION    = 14.39562489
ECCENTRICITY   = .0204173
INCLINATION    = 97.7363
RA_OF_ASC_NODE = 160.2900
ARG_OF_PERICENTER = 318.9817
MEAN_ANOMALY   = 39.6168

EPHEMERIS_TYPE = 0
CLASSIFICATION_TYPE = U
NORAD_CAT_ID   = 82073
ELEMENT_SET_NO = 999
REV_AT_EPOCH   = 59061
BSTAR          = .54634E-3
MEAN_MOTION_DOT = .2133E-4
MEAN_MOTION_DDOT = 0

CCSDS_OMM_VERS = 2.0
CREATION_DATE  = 
ORIGINATOR     = 

OBJECT_NAME    = UNKNOWN
OBJECT_ID      = 
CENTER_NAME    = EARTH
REF_FRAME      = TEME
TIME_SYSTEM    = UTC
MEAN_ELEMENT_THEORY = SGP/SGP4

EPOCH          = 2026-03-30T10:06:21.734496
MEAN_MOTION    = 14.16015591
ECCENTRICITY   = .0083869
INCLINATION    = 99.0112
RA_OF_ASC_NODE = 163.5743
ARG_OF_PERICENTER = 98.7194
MEAN_ANOMALY   = 262.3489

EPHEMERIS_TYPE = 0
CLASSIFICATION_TYPE = U
NORAD_CAT_ID   = 82139
ELEMENT_SET_NO = 999
REV_AT_EPOCH   = 49535
BSTAR          = .14457E-2
MEAN_MOTION_DOT = .2907E-4
MEAN_MOTION_DDOT = 0

CCSDS_OMM_VERS = 2.0
CREATION_DATE  = 
ORIGINATOR     = 

OBJECT_NAME    = UNKNOWN
OBJECT_ID      = 
CENTER_NAME    = EARTH
REF_FRAME      = TEME
TIME_SYSTEM    = UTC
MEAN_ELEMENT_THEORY = SGP/SGP4

EPOCH          = 2026-03-30T02:05:31.918272
MEAN_MOTION    = 13.54494824
ECCENTRICITY   = .0059593
INCLINATION    = 100.4711
RA_OF_ASC_NODE = 24.7787
ARG_OF_PERICENTER = 334.0921
MEAN_ANOMALY   = 25.7233

EPHEMERIS_TYPE = 0
CLASSIFICATION_TYPE = U
NORAD_CAT_ID   = 82162
ELEMENT_SET_NO = 999
REV_AT_EPOCH   = 51883
BSTAR          = .62012E-2
MEAN_MOTION_DOT = .4236E-4
MEAN_MOTION_DDOT = 0

CCSDS_OMM_VERS = 2.0
CREATION_DATE  = 
ORIGINATOR     = 

OBJECT_NAME    = UNKNOWN
OBJECT_ID      = 
CENTER_NAME    = EARTH
REF_FRAME      = TEME
TIME_SYSTEM    = UTC
MEAN_ELEMENT_THEORY = SGP/SGP4

EPOCH          = 2026-03-30T10:25:04.067904
MEAN_MOTION    = 14.55222660
ECCENTRICITY   = .0292567
INCLINATION    = 65.6550
RA_OF_ASC_NODE = 342.8717
ARG_OF_PERICENTER = 161.6291
MEAN_ANOMALY   = 199.5652

EPHEMERIS_TYPE = 0
CLASSIFICATION_TYPE = U
NORAD_CAT_ID   = 82180
ELEMENT_SET_NO = 999
REV_AT_EPOCH   = 61739
BSTAR          = .19892E-2
MEAN_MOTION_DOT = .15324E-3
MEAN_MOTION_DDOT = 0

CCSDS_OMM_VERS = 2.0
CREATION_DATE  = 
ORIGINATOR     = 

OBJECT_NAME    = UNKNOWN
OBJECT_ID      = 
CENTER_NAME    = EARTH
REF_FRAME      = TEME
TIME_SYSTEM    = UTC
MEAN_ELEMENT_THEORY = SGP/SGP4

EPOCH          = 2026-03-30T01:21:59.136480
MEAN_MOTION    = 14.35296236
ECCENTRICITY   = .0016225
INCLINATION    = 74.0348
RA_OF_ASC_NODE = 211.5250
ARG_OF_PERICENTER = 13.0439
MEAN_ANOMALY   = 347.1129

EPHEMERIS_TYPE = 0
CLASSIFICATION_TYPE = U
NORAD_CAT_ID   = 82189
ELEMENT_SET_NO = 999
REV_AT_EPOCH   = 64781
BSTAR          = .13191E-3
MEAN_MOTION_DOT = .352E-5
MEAN_MOTION_DDOT = 0

CCSDS_OMM_VERS = 2.0
CREATION_DATE  = 
ORIGINATOR     = 

OBJECT_NAME    = UNKNOWN
OBJECT_ID      = 
CENTER_NAME    = EARTH
REF_FRAME      = TEME
TIME_SYSTEM    = UTC
MEAN_ELEMENT_THEORY = SGP/SGP4

EPOCH          = 2026-03-30T11:10:53.319360
MEAN_MOTION    = 13.85910168
ECCENTRICITY   = .0039289
INCLINATION    = 82.9681
RA_OF_ASC_NODE = 152.9061
ARG_OF_PERICENTER = 92.2142
MEAN_ANOMALY   = 283.6814

EPHEMERIS_TYPE = 0
CLASSIFICATION_TYPE = U
NORAD_CAT_ID   = 82199
ELEMENT_SET_NO = 999
REV_AT_EPOCH   = 62461
BSTAR          = .45349E-3
MEAN_MOTION_DOT = .54E-5
MEAN_MOTION_DDOT = 0

CCSDS_OMM_VERS = 2.0
CREATION_DATE  = 
ORIGINATOR     = 

OBJECT_NAME    = UNKNOWN
OBJECT_ID      = 
CENTER_NAME    = EARTH
REF_FRAME      = TEME
TIME_SYSTEM    = UTC
MEAN_ELEMENT_THEORY = SGP/SGP4

EPOCH          = 2026-03-30T13:58:37.123968
MEAN_MOTION    = 13.94096503
ECCENTRICITY   = .0496991
INCLINATION    = 63.0082
RA_OF_ASC_NODE = 299.0098
ARG_OF_PERICENTER = 304.1284
MEAN_ANOMALY   = 51.3555

EPHEMERIS_TYPE = 0
CLASSIFICATION_TYPE = U
NORAD_CAT_ID   = 82205
ELEMENT_SET_NO = 999
REV_AT_EPOCH   = 62303
BSTAR          = .51294E-3
MEAN_MOTION_DOT = .179E-4
MEAN_MOTION_DDOT = 0

CCSDS_OMM_VERS = 2.0
CREATION_DATE  = 
ORIGINATOR     = 

OBJECT_NAME    = UNKNOWN
OBJECT_ID      = 
CENTER_NAME    = EARTH
REF_FRAME      = TEME
TIME_SYSTEM    = UTC
MEAN_ELEMENT_THEORY = SGP/SGP4

EPOCH          = 2026-03-25T15:35:50.612640
MEAN_MOTION    = 14.12420409
ECCENTRICITY   = .0069814
INCLINATION    = 99.3143
RA_OF_ASC_NODE = 339.6198
ARG_OF_PERICENTER = 57.1356
MEAN_ANOMALY   = 303.6508

EPHEMERIS_TYPE = 0
CLASSIFICATION_TYPE = U
NORAD_CAT_ID   = 82223
ELEMENT_SET_NO = 999
REV_AT_EPOCH   = 46331
BSTAR          = .13273E-2
MEAN_MOTION_DOT = .2459E-4
MEAN_MOTION_DDOT = 0

CCSDS_OMM_VERS = 2.0
CREATION_DATE  = 
ORIGINATOR     = 

OBJECT_NAME    = UNKNOWN
OBJECT_ID      = 
CENTER_NAME    = EARTH
REF_FRAME      = TEME
TIME_SYSTEM    = UTC
MEAN_ELEMENT_THEORY = SGP/SGP4

EPOCH          = 2026-03-29T05:22:23.526624
MEAN_MOTION    = 14.14724282
ECCENTRICITY   = .0068895
INCLINATION    = 98.9064
RA_OF_ASC_NODE = 358.3766
ARG_OF_PERICENTER = 251.1438
MEAN_ANOMALY   = 262.2712

EPHEMERIS_TYPE = 0
CLASSIFICATION_TYPE = U
NORAD_CAT_ID   = 82250
ELEMENT_SET_NO = 999
REV_AT_EPOCH   = 63168
BSTAR          = .21786E-2
MEAN_MOTION_DOT = .4249E-4
MEAN_MOTION_DDOT = 0

CCSDS_OMM_VERS = 2.0
CREATION_DATE  = 
ORIGINATOR     = 

OBJECT_NAME    = UNKNOWN
OBJECT_ID      = 
CENTER_NAME    = EARTH
REF_FRAME      = TEME
TIME_SYSTEM    = UTC
MEAN_ELEMENT_THEORY = SGP/SGP4

EPOCH          = 2026-03-28T18:12:53.140896
MEAN_MOTION    = 12.33653994
ECCENTRICITY   = .0754636
INCLINATION    = 67.5295
RA_OF_ASC_NODE = 8.7321
ARG_OF_PERICENTER = 37.9870
MEAN_ANOMALY   = 327.1961

EPHEMERIS_TYPE = 0
CLASSIFICATION_TYPE = U
NORAD_CAT_ID   = 82272
ELEMENT_SET_NO = 999
REV_AT_EPOCH   = 28501
BSTAR          = .32598E-2
MEAN_MOTION_DOT = .1009E-4
MEAN_MOTION_DDOT = 0

CCSDS_OMM_VERS = 2.0
CREATION_DATE  = 
ORIGINATOR     = 

OBJECT_NAME    = UNKNOWN
OBJECT_ID      = 
CENTER_NAME    = EARTH
REF_FRAME      = TEME
TIME_SYSTEM    = UTC
MEAN_ELEMENT_THEORY = SGP/SGP4

EPOCH          = 2026-03-28T23:18:18.668160
MEAN_MOTION    = 13.93009911
ECCENTRICITY   = .0038087
INCLINATION    = 81.9375
RA_OF_ASC_NODE = 270.9384
ARG_OF_PERICENTER = 6.6064
MEAN_ANOMALY   = 145.6838

EPHEMERIS_TYPE = 0
CLASSIFICATION_TYPE = U
NORAD_CAT_ID   = 82303
ELEMENT_SET_NO = 999
REV_AT_EPOCH   = 52918
BSTAR          = .237E-1
MEAN_MOTION_DOT = .31092E-3
MEAN_MOTION_DDOT = 0

CCSDS_OMM_VERS = 2.0
CREATION_DATE  = 
ORIGINATOR     = 

OBJECT_NAME    = UNKNOWN
OBJECT_ID      = 
CENTER_NAME    = EARTH
REF_FRAME      = TEME
TIME_SYSTEM    = UTC
MEAN_ELEMENT_THEORY = SGP/SGP4

EPOCH          = 2026-03-30T14:13:51.655872
MEAN_MOTION    = 13.54691550
ECCENTRICITY   = .0108122
INCLINATION    = 99.4200
RA_OF_ASC_NODE = 143.4878
ARG_OF_PERICENTER = 36.9240
MEAN_ANOMALY   = 323.9279

EPHEMERIS_TYPE = 0
CLASSIFICATION_TYPE = U
NORAD_CAT_ID   = 82311
ELEMENT_SET_NO = 999
REV_AT_EPOCH   = 56492
BSTAR          = .83978E-3
MEAN_MOTION_DOT = .556E-5
MEAN_MOTION_DDOT = 0

