UNKNOWN                 
1 82073U          26089.44101044  .00002133  00000+0  54634-3 0  9996
2 82073  97.7363 160.2900 0204173 318.9817  39.6168 14.39562489590614
UNKNOWN                 
1 82139U          26089.42108489  .00002907  00000+0  14457-2 0  9994
2 82139  99.0112 163.5743 0083869  98.7194 262.3489 14.16015591495351
UNKNOWN                 
1 82162U          26089.08717498  .00004236  00000+0  62012-2 0  9995
2 82162 100.4711  24.7787 0059593 334.0921  25.7233 13.54494824518834
UNKNOWN                 
1 82180U          26089.43407486  .00015324  00000+0  19892-2 0  9995
2 82180  65.6550 342.8717 0292567 161.6291 199.5652 14.55222660617393
UNKNOWN                 
1 82189U          26089.05693445  .00000352  00000+0  13191-3 0  9996
2 82189  74.0348 211.5250 0016225  13.0439 347.1129 14.35296236647812
UNKNOWN                 
1 82199U          26089.46589490  .00000540  00000+0  45349-3 0  9995
2 82199  82.9681 152.9061 0039289  92.2142 283.6814 13.85910168624613
UNKNOWN                 
1 82205U          26089.58237412  .00001790  00000+0  51294-3 0  9994
2 82205  63.0082 299.0098 0496991 304.1284  51.3555 13.94096503623033
UNKNOWN                 
1 82223U          26084.64989135  .00002459  00000+0  13273-2 0  9999
2 82223  99.3143 339.6198 0069814  57.1356 303.6508 14.12420409463311
UNKNOWN                 
1 82250U          26088.22388341  .00004249  00000+0  21786-2 0  9996
2 82250  98.9064 358.3766 0068895 251.1438 262.2712 14.14724282631684
UNKNOWN                 
1 82272U          26087.75894839  .00001009  00000+0  32598-2 0  9995
2 82272  67.5295   8.7321 0754636  37.9870 327.1961 12.33653994285013
UNKNOWN                 
1 82303U          26087.97104940  .00031092  00000+0  23700-1 0  9990
2 82303  81.9375 270.9384 0038087   6.6064 145.6838 13.93009911529188
UNKNOWN                 
1 82311U          26089.59295898  .00000556  00000+0  83978-3 0  9998
2 82311  99.4200 143.4878 0108122  36.9240 323.9279 13.54691550564924
